OBJECT_NAME,OBJECT_ID,OBJECT_TYPE,EPOCH,MEAN_MOTION,ECCENTRICITY,INCLINATION,RA_OF_ASC_NODE,ARG_OF_PERICENTER,MEAN_ANOMALY,EPHEMERIS_TYPE,CLASSIFICATION_TYPE,NORAD_CAT_ID,ELEMENT_SET_NO,REV_AT_EPOCH,BSTAR,MEAN_MOTION_DOT,MEAN_MOTION_DDOT,WEATHER,BRIGHTEST,EARTH_RESOURCES,NAVIGATION,SCIENTIFIC,MISCELLANEOUS,COMMUNICATION,active geosynchronous,constellations,active_geosynchronous
STARLINK-36624,2026-020V,Sattelite,2026-02-22T00:00:02.999808,15.76314803,0.00017828,42.9996,237.0806,278.4829,125.191,0,U,67636,999,486,0.0006214803,0.00101705,0.0,False,False,False,False,False,False,False,False,starlink,
STARLINK-36610,2026-020W,Sattelite,2026-02-22T20:06:36.493632,15.76427588,0.00021288,42.9982,232.296,273.1707,86.8919,0,U,67637,999,374,0.0013440594,0.00224898,0.0,False,False,False,False,False,False,False,False,starlink,
STARLINK-36599,2026-020X,Sattelite,2026-02-21T14:16:53.043168,15.82028119,0.0003095,42.9983,239.2951,287.9163,72.1371,0,U,67638,999,355,0.0017085,0.00375504,0.0,False,False,False,False,False,False,False,False,starlink,
STARLINK-36595,2026-020Y,Sattelite,2026-02-22T00:00:02.999808,15.76277063,0.00017674,42.9992,236.9868,266.7354,174.2725,0,U,67639,999,486,0.0010093005,0.00166476,0.0,False,False,False,False,False,False,False,False,starlink,
STARLINK-36570,2026-020Z,Sattelite,2026-02-22T21:28:23.001888,15.76495963,0.00036065,43.0001,231.8588,272.3577,87.688,0,U,67640,999,375,0.001670806,0.00282506,0.0,False,False,False,False,False,False,False,False,starlink,
STARLINK-36514,2026-020AA,Sattelite,2026-02-22T22:00:01.999584,15.76310946,0.00016698,42.9993,231.1978,266.3603,70.0106,0,U,67641,999,501,0.00061096293,0.00099937,0.0,False,False,False,False,False,False,False,False,starlink,
STARLINK-36556,2026-020AB,Sattelite,2026-02-22T21:12:38.566080,15.76374659,0.00017974,42.9985,231.7673,256.2869,103.7801,0,U,67642,999,375,0.00055629594,0.00091114,0.0,False,False,False,False,False,False,False,False,starlink,
STARLINK-36533,2026-020AC,Sattelite,2026-02-22T20:00:17.112096,15.76366936,0.00011265,42.9984,232.2588,319.719,40.3596,0,U,67643,999,374,-0.00049318483,-0.00080041,0.0,False,False,False,False,False,False,False,False,starlink,
STARLINK-36623,2026-020AD,Sattelite,2026-02-22T21:22:05.097792,15.76468084,0.00017712,42.9982,231.82,283.7097,76.3576,0,U,67644,999,375,0.0014116538,0.00236994,0.0,False,False,False,False,False,False,False,False,starlink,
STARLINK-36619,2026-020AE,Sattelite,2026-02-22T21:18:56.457216,15.76471348,0.00014196,42.9968,231.8034,319.4635,40.6128,0,U,67645,999,375,0.0017841436,0.00302037,0.0,False,False,False,False,False,False,False,False,starlink,
ALSAT-3B,2026-021A,Sattelite,2026-02-22T22:28:04.410624,15.2370784,0.0012729,97.4691,128.337,180.8634,179.2583,0,U,67646,999,347,0.00034220271,8.165e-05,0.0,False,False,False,False,False,False,False,False,False,
STARLINK-36719,2026-022A,Sattelite,2026-02-22T20:39:28.203840,15.75261247,0.00015776,97.2833,87.0934,72.6326,287.5112,0,U,67648,999,321,0.001006214,0.00153147,0.0,False,False,False,False,False,False,False,False,starlink,
STARLINK-36342,2026-022B,Sattelite,2026-02-22T20:38:27.068928,15.75313138,0.00012151,97.2835,87.0937,79.5655,280.5748,0,U,67649,999,321,0.0017490773,0.00270633,0.0,False,False,False,False,False,False,False,False,starlink,
STARLINK-36703,2026-022C,Sattelite,2026-02-22T20:36:55.980000,15.75225369,0.00016977,97.2839,87.0954,81.9132,278.2326,0,U,67650,999,321,0.00056634537,0.00085325,0.0,False,False,False,False,False,False,False,False,starlink,
STARLINK-36696,2026-022D,Sattelite,2026-02-22T20:34:22.833408,15.75341704,0.00014626,97.2836,87.098,151.4187,208.7158,0,U,67651,999,321,0.0021192634,0.00330688,0.0,False,False,False,False,False,False,False,False,starlink,
STARLINK-36699,2026-022E,Sattelite,2026-02-22T20:33:22.442400,15.75256378,0.00015412,97.2836,87.0988,81.1474,278.9966,0,U,67652,999,321,0.00093975808,0.00142819,0.0,False,False,False,False,False,False,False,False,starlink,
STARLINK-36694,2026-022F,Sattelite,2026-02-22T20:30:19.175040,15.75309979,0.00011559,97.2834,87.1018,106.1252,254.0141,0,U,67653,999,321,0.0017602386,0.0027238,0.0,False,False,False,False,False,False,False,False,starlink,
STARLINK-36620,2026-022G,Sattelite,2026-02-22T20:29:48.528960,15.75345846,0.00014808,97.2839,87.1016,129.5588,230.5808,0,U,67654,999,321,0.0022824123,0.00357348,0.0,False,False,False,False,False,False,False,False,starlink,
STARLINK-36720,2026-022H,Sattelite,2026-02-22T20:27:16.544448,15.75257978,0.00018365,97.2839,87.1043,99.5454,260.6019,0,U,67655,999,321,0.00095663435,0.00145444,0.0,False,False,False,False,False,False,False,False,starlink,
STARLINK-36688,2026-022J,Sattelite,2026-02-22T20:26:15.533088,15.75263488,0.00015923,97.2842,87.1045,97.2879,262.8567,0,U,67656,999,321,0.0010558421,0.00160869,0.0,False,False,False,False,False,False,False,False,starlink,
STARLINK-36706,2026-022K,Sattelite,2026-02-22T20:24:13.545792,15.75241158,0.00015231,97.2842,87.1058,97.8548,262.289,0,U,67657,999,321,0.00065082479,0.00098287,0.0,False,False,False,False,False,False,False,False,starlink,
STARLINK-36701,2026-022L,Sattelite,2026-02-22T20:22:42.084480,15.75254458,0.00014203,97.2841,87.1079,96.3938,263.7489,0,U,67658,999,321,0.00099364978,0.00151152,0.0,False,False,False,False,False,False,False,False,starlink,
STARLINK-36642,2026-022M,Sattelite,2026-02-22T20:21:10.619712,15.75263996,0.00014867,97.2841,87.1098,94.8517,265.2918,0,U,67659,999,321,0.0011103018,0.00169345,0.0,False,False,False,False,False,False,False,False,starlink,
STARLINK-36673,2026-022N,Sattelite,2026-02-22T20:19:08.639328,15.75257583,0.00017375,97.2843,87.1107,96.6485,263.4978,0,U,67660,999,321,0.00093372657,0.00141895,0.0,False,False,False,False,False,False,False,False,starlink,
STARLINK-36674,2026-022P,Sattelite,2026-02-22T20:17:06.805824,15.75261396,0.00014138,97.2842,87.1131,56.9672,303.1728,0,U,67661,999,321,0.001124009,0.0017146,0.0,False,False,False,False,False,False,False,False,starlink,
STARLINK-36700,2026-022Q,Sattelite,2026-02-22T23:17:01.237344,15.75243881,0.00016469,97.285,87.2494,82.4124,277.7329,0,U,67662,999,323,0.00075620451,0.00114454,0.0,False,False,False,False,False,False,False,False,starlink,
STARLINK-36675,2026-022R,Sattelite,2026-02-22T20:16:05.795328,15.75236128,0.00015495,97.2847,87.114,80.75,279.394,0,U,67663,999,321,0.00065016214,0.00098164,0.0,False,False,False,False,False,False,False,False,starlink,
STARLINK-36404,2026-022S,Sattelite,2026-02-22T20:11:31.330176,15.75234481,0.00014139,97.2853,87.1168,87.3194,272.8233,0,U,67664,999,321,0.00059539193,0.00089788,0.0,False,False,False,False,False,False,False,False,starlink,
STARLINK-36399,2026-022T,Sattelite,2026-02-22T20:10:30.488160,15.75242087,0.00016137,97.2852,87.1182,106.3171,253.8272,0,U,67665,999,321,0.00077541538,0.00117397,0.0,False,False,False,False,False,False,False,False,starlink,
STARLINK-36365,2026-022U,Sattelite,2026-02-22T17:05:30.941952,15.75281068,0.00016218,97.2851,86.9869,84.4541,275.6909,0,U,67666,999,319,0.0014955882,0.00229963,0.0,False,False,False,False,False,False,False,False,starlink,
STARLINK-36622,2026-022V,Sattelite,2026-02-22T20:05:56.044608,15.75250199,0.0001778,97.2853,87.1227,94.5921,265.5547,0,U,67667,999,321,0.00093131855,0.00141477,0.0,False,False,False,False,False,False,False,False,starlink,
STARLINK-36625,2026-022W,Sattelite,2026-02-22T20:03:54.337248,15.75238227,0.00029362,97.2855,87.1245,60.906,299.2499,0,U,67668,999,321,0.00071530489,0.00108166,0.0,False,False,False,False,False,False,False,False,starlink,
STARLINK-36639,2026-022X,Sattelite,2026-02-22T20:01:21.718560,15.75255424,0.00018068,97.2854,87.1269,83.9786,276.1685,0,U,67669,999,321,0.0010105849,0.00153787,0.0,False,False,False,False,False,False,False,False,starlink,
STARLINK-36596,2026-022Y,Sattelite,2026-02-22T19:58:49.172448,15.75239873,0.00016753,97.2857,87.1292,94.7838,265.3619,0,U,67670,999,321,0.0008881535,0.00134746,0.0,False,False,False,False,False,False,False,False,starlink,
STARLINK-36297,2026-022Z,Sattelite,2026-02-22T21:27:14.751936,15.75242682,0.00012137,97.2857,87.1983,103.9878,256.1523,0,U,67671,999,322,0.00074199053,0.00112263,0.0,False,False,False,False,False,False,False,False,starlink,
STARLINK-36616,2026-022AA,Sattelite,2026-02-22T19:57:48.229344,15.75267636,0.00019025,97.2854,87.1296,54.4283,305.7159,0,U,67672,999,321,0.0012499152,0.0019118,0.0,False,False,False,False,False,False,False,False,starlink,
COSMOS 2600,2026-023A,Sattelite,2026-02-22T22:09:20.636064,15.83300425,0.00016737,96.6455,130.028,59.528,300.6157,0,U,67674,999,271,0.00036882313,0.00079825,0.0,False,False,False,False,False,False,False,False,False,
ISS OBJECT XZ,1998-067XZ,Sattelite,2026-02-22T06:22:16.677120,15.50521186,0.00100054,51.6314,148.4121,134.8539,225.3264,0,U,67683,999,239,0.0007140621,0.00041343,0.0,False,False,False,False,False,False,False,False,False,
GXIBA-1,1998-067YA,Sattelite,2026-02-22T15:26:02.582880,15.51889665,0.0011656,51.6313,146.4331,128.7037,231.4997,0,U,67684,999,245,0.0012925,0.00079428,0.0,False,False,False,False,False,False,False,False,False,
CORAL,1998-067YB,Sattelite,2026-02-22T20:15:08.231328,15.50787508,0.00119113,51.6309,145.5236,133.1205,227.0782,0,U,67685,999,248,0.00080080164,0.00046938,0.0,False,False,False,False,False,False,False,False,False,
ISS OBJECT YC,1998-067YC,Sattelite,2026-02-22T06:17:35.185920,15.50999605,0.00076877,51.6313,148.3904,102.1024,258.0828,0,U,67686,999,239,0.00086445125,0.00051037,0.0,False,False,False,False,False,False,False,False,False,
LEOPARD,1998-067YD,Sattelite,2026-02-22T17:10:32.611008,15.50684612,0.00077678,51.6314,146.1685,106.0969,254.0876,0,U,67687,999,238,0.00077930749,0.00045416,0.0,False,False,False,False,False,False,False,False,False,
ISS OBJECT YE,1998-067YE,Sattelite,2026-02-22T06:18:34.486560,15.50878079,0.00076954,51.6324,148.3958,103.3001,256.8847,0,U,67688,999,231,0.00081294922,0.0004774,0.0,False,False,False,False,False,False,False,False,False,
